{
  "type": "FeatureCollection",
  "features": [
    {
      "type": "Feature",
      "properties": {
        "norad_id": 19071,
        "name": "OSCAR 32",
        "group": "nnss",
        "lat": 3.5922191846128535,
        "lon": -163.51311370330365,
        "alt_km": 1015.5612620084257,
        "timestamp": "2025-12-10T20:49:52.822216+00:00",
        "meta_object_name": "OSCAR 32",
        "meta_object_id": "1988-033B",
        "meta_epoch": "2025-12-10T04:02:11.577120",
        "meta_mean_motion": 13.27953499,
        "meta_eccentricity": 0.01881562,
        "meta_inclination": 90.3219,
        "meta_ra_of_asc_node": 16.4448,
        "meta_arg_of_pericenter": 173.9306,
        "meta_mean_anomaly": 258.7457,
        "meta_ephemeris_type": 0,
        "meta_classification_type": "U",
        "meta_norad_cat_id": 19071,
        "meta_element_set_no": 999,
        "meta_rev_at_epoch": 82231,
        "meta_bstar": 0.00017276505,
        "meta_mean_motion_dot": 9.5e-07,
        "meta_mean_motion_ddot": 0,
        "tle_line1": "1 19071U 88033B   25344.16818955  .00000095  00000+0  17277-3 0  9991",
        "tle_line2": "2 19071  90.3219  16.4448 0188156 173.9306 258.7457 13.27953499822315"
      },
      "geometry": {
        "type": "Point",
        "coordinates": [
          -163.51311370330365,
          3.5922191846128535
        ]
      }
    },
    {
      "type": "Feature",
      "properties": {
        "norad_id": 19223,
        "name": "NOVA 2",
        "group": "nnss",
        "lat": 47.207069870727416,
        "lon": 78.28865291277545,
        "alt_km": 1148.3511395836158,
        "timestamp": "2025-12-10T20:49:52.822226+00:00",
        "meta_object_name": "NOVA 2",
        "meta_object_id": "1988-052A",
        "meta_epoch": "2025-12-10T13:23:47.259168",
        "meta_mean_motion": 13.2293565,
        "meta_eccentricity": 0.00307763,
        "meta_inclination": 89.9872,
        "meta_ra_of_asc_node": 78.2752,
        "meta_arg_of_pericenter": 22.8571,
        "meta_mean_anomaly": 349.7456,
        "meta_ephemeris_type": 0,
        "meta_classification_type": "U",
        "meta_norad_cat_id": 19223,
        "meta_element_set_no": 999,
        "meta_rev_at_epoch": 80919,
        "meta_bstar": 0.00019431123,
        "meta_mean_motion_dot": 9.1e-07,
        "meta_mean_motion_ddot": 0,
        "tle_line1": "1 19223U 88052A   25344.55818587  .00000091  00000+0  19431-3 0  9995",
        "tle_line2": "2 19223  89.9872  78.2752 0030776  22.8571 349.7456 13.22935650809192"
      },
      "geometry": {
        "type": "Point",
        "coordinates": [
          78.28865291277545,
          47.207069870727416
        ]
      }
    },
    {
      "type": "Feature",
      "properties": {
        "norad_id": 19419,
        "name": "OSCAR 25",
        "group": "nnss",
        "lat": -8.20829645602063,
        "lon": 20.24313812507709,
        "alt_km": 1115.830321170577,
        "timestamp": "2025-12-10T20:49:52.822235+00:00",
        "meta_object_name": "OSCAR 25",
        "meta_object_id": "1988-074A",
        "meta_epoch": "2025-12-10T12:32:06.088416",
        "meta_mean_motion": 13.42622723,
        "meta_eccentricity": 0.00943622,
        "meta_inclination": 90.0349,
        "meta_ra_of_asc_node": 20.2369,
        "meta_arg_of_pericenter": 252.2793,
        "meta_mean_anomaly": 228.7267,
        "meta_ephemeris_type": 0,
        "meta_classification_type": "U",
        "meta_norad_cat_id": 19419,
        "meta_element_set_no": 999,
        "meta_rev_at_epoch": 82610,
        "meta_bstar": 0.00021789144,
        "meta_mean_motion_dot": 1.35e-06,
        "meta_mean_motion_ddot": 0,
        "tle_line1": "1 19419U 88074A   25344.52229269  .00000135  00000+0  21789-3 0  9994",
        "tle_line2": "2 19419  90.0349  20.2369 0094362 252.2793 228.7267 13.42622723826100"
      },
      "geometry": {
        "type": "Point",
        "coordinates": [
          20.24313812507709,
          -8.20829645602063
        ]
      }
    },
    {
      "type": "Feature",
      "properties": {
        "norad_id": 19420,
        "name": "OSCAR 31",
        "group": "nnss",
        "lat": -54.749630197816074,
        "lon": -159.46378287282542,
        "alt_km": 1038.6678649501864,
        "timestamp": "2025-12-10T20:49:52.822245+00:00",
        "meta_object_name": "OSCAR 31",
        "meta_object_id": "1988-074B",
        "meta_epoch": "2025-12-10T08:59:02.817888",
        "meta_mean_motion": 13.42584048,
        "meta_eccentricity": 0.00926324,
        "meta_inclination": 90.0365,
        "meta_ra_of_asc_node": 20.5861,
        "meta_arg_of_pericenter": 246.8053,
        "meta_mean_anomaly": 123.5934,
        "meta_ephemeris_type": 0,
        "meta_classification_type": "U",
        "meta_norad_cat_id": 19420,
        "meta_element_set_no": 999,
        "meta_rev_at_epoch": 82619,
        "meta_bstar": 0.00017491127,
        "meta_mean_motion_dot": 1.1e-06,
        "meta_mean_motion_ddot": 0,
        "tle_line1": "1 19420U 88074B   25344.37433817  .00000110  00000+0  17491-3 0  9993",
        "tle_line2": "2 19420  90.0365  20.5861 0092632 246.8053 123.5934 13.42584048826195"
      },
      "geometry": {
        "type": "Point",
        "coordinates": [
          -159.46378287282542,
          -54.749630197816074
        ]
      }
    }
  ]
}